{
  "links" : {
    "next" : "https://api.nasa.gov/neo/rest/v1/feed?start_date=2014-12-16&end_date=2014-12-16&detailed=true&api_key=t0TVs3DtDT2H8Oy2Zy8m2eVrNsAVKAexjcZXUckd",
    "prev" : "https://api.nasa.gov/neo/rest/v1/feed?start_date=2014-12-14&end_date=2014-12-14&detailed=true&api_key=t0TVs3DtDT2H8Oy2Zy8m2eVrNsAVKAexjcZXUckd",
    "self" : "https://api.nasa.gov/neo/rest/v1/feed?start_date=2014-12-15&end_date=2014-12-15&detailed=true&api_key=t0TVs3DtDT2H8Oy2Zy8m2eVrNsAVKAexjcZXUckd"
  },
  "element_count" : 11,
  "near_earth_objects" : {
    "2014-12-15" : [ {
      "links" : {
        "self" : "https://api.nasa.gov/neo/rest/v1/neo/3703243?api_key=t0TVs3DtDT2H8Oy2Zy8m2eVrNsAVKAexjcZXUckd"
      },
      "neo_reference_id" : "3703243",
      "name" : "(2014 YZ41)",
      "nasa_jpl_url" : "http://ssd.jpl.nasa.gov/sbdb.cgi?sstr=3703243",
      "absolute_magnitude_h" : 23.6,
      "estimated_diameter" : {
        "kilometers" : {
          "estimated_diameter_min" : 0.0506471459,
          "estimated_diameter_max" : 0.1132504611
        },
        "meters" : {
          "estimated_diameter_min" : 50.6471458835,
          "estimated_diameter_max" : 113.2504610618
        },
        "miles" : {
          "estimated_diameter_min" : 0.0314706677,
          "estimated_diameter_max" : 0.0703705522
        },
        "feet" : {
          "estimated_diameter_min" : 166.1651821003,
          "estimated_diameter_max" : 371.5566426699
        }
      },
      "is_potentially_hazardous_asteroid" : false,
      "close_approach_data" : [ {
        "close_approach_date" : "2014-12-15",
        "epoch_date_close_approach" : 1418630400000,
        "relative_velocity" : {
          "kilometers_per_second" : "11.7541238395",
          "kilometers_per_hour" : "42314.8458222659",
          "miles_per_hour" : "26292.7996166185"
        },
        "miss_distance" : {
          "astronomical" : "0.0537150948",
          "lunar" : "20.8951721191",
          "kilometers" : "8035664",
          "miles" : "4993130"
        },
        "orbiting_body" : "Earth"
      } ],
      "orbital_data" : {
        "orbit_id" : "5",
        "orbit_determination_date" : "2017-04-06 08:36:35",
        "orbit_uncertainty" : "8",
        "minimum_orbit_intersection" : ".0191487",
        "jupiter_tisserand_invariant" : "4.830",
        "epoch_osculation" : "2457021.5",
        "eccentricity" : ".3721315887907879",
        "semi_major_axis" : "1.335901779463526",
        "inclination" : "6.426174385911338",
        "ascending_node_longitude" : "88.55383671229455",
        "orbital_period" : "563.9754759023119",
        "perihelion_distance" : ".8387705278033236",
        "perihelion_argument" : "286.2414412148103",
        "aphelion_distance" : "1.833033031123729",
        "perihelion_time" : "2456957.771556286687",
        "mean_anomaly" : "40.67949887375348",
        "mean_motion" : ".6383256282979879",
        "equinox" : "J2000"
      }
    }, {
      "links" : {
        "self" : "https://api.nasa.gov/neo/rest/v1/neo/2302169?api_key=t0TVs3DtDT2H8Oy2Zy8m2eVrNsAVKAexjcZXUckd"
      },
      "neo_reference_id" : "2302169",
      "name" : "302169 (2001 TD45)",
      "nasa_jpl_url" : "http://ssd.jpl.nasa.gov/sbdb.cgi?sstr=2302169",
      "absolute_magnitude_h" : 19.9,
      "estimated_diameter" : {
        "kilometers" : {
          "estimated_diameter_min" : 0.2783267681,
          "estimated_diameter_max" : 0.6223575734
        },
        "meters" : {
          "estimated_diameter_min" : 278.3267680719,
          "estimated_diameter_max" : 622.3575733667
        },
        "miles" : {
          "estimated_diameter_min" : 0.1729441822,
          "estimated_diameter_max" : 0.3867149477
        },
        "feet" : {
          "estimated_diameter_min" : 913.1455937611,
          "estimated_diameter_max" : 2041.8556210042
        }
      },
      "is_potentially_hazardous_asteroid" : true,
      "close_approach_data" : [ {
        "close_approach_date" : "2014-12-15",
        "epoch_date_close_approach" : 1418630400000,
        "relative_velocity" : {
          "kilometers_per_second" : "19.5219803182",
          "kilometers_per_hour" : "70279.1291455466",
          "miles_per_hour" : "43668.7177737981"
        },
        "miss_distance" : {
          "astronomical" : "0.4470048547",
          "lunar" : "173.8848876953",
          "kilometers" : "66870976",
          "miles" : "41551696"
        },
        "orbiting_body" : "Earth"
      } ],
      "orbital_data" : {
        "orbit_id" : "22",
        "orbit_determination_date" : "2017-04-06 09:24:07",
        "orbit_uncertainty" : "0",
        "minimum_orbit_intersection" : ".026816",
        "jupiter_tisserand_invariant" : "6.975",
        "epoch_osculation" : "2458000.5",
        "eccentricity" : ".7774813126655364",
        "semi_major_axis" : ".7967790476136839",
        "inclination" : "25.39730481828331",
        "ascending_node_longitude" : "30.28217769630749",
        "orbital_period" : "259.7797441108315",
        "perihelion_distance" : ".177298227770601",
        "perihelion_argument" : "212.4325076341248",
        "aphelion_distance" : "1.416259867456767",
        "perihelion_time" : "2458118.465718974680",
        "mean_anomaly" : "196.5243642215359",
        "mean_motion" : "1.385789339473716",
        "equinox" : "J2000"
      }
    }, {
      "links" : {
        "self" : "https://api.nasa.gov/neo/rest/v1/neo/2417217?api_key=t0TVs3DtDT2H8Oy2Zy8m2eVrNsAVKAexjcZXUckd"
      },
      "neo_reference_id" : "2417217",
      "name" : "417217 (2005 YS)",
      "nasa_jpl_url" : "http://ssd.jpl.nasa.gov/sbdb.cgi?sstr=2417217",
      "absolute_magnitude_h" : 19.6,
      "estimated_diameter" : {
        "kilometers" : {
          "estimated_diameter_min" : 0.3195618867,
          "estimated_diameter_max" : 0.7145621017
        },
        "meters" : {
          "estimated_diameter_min" : 319.5618867213,
          "estimated_diameter_max" : 714.5621017269
        },
        "miles" : {
          "estimated_diameter_min" : 0.1985664891,
          "estimated_diameter_max" : 0.4440081677
        },
        "feet" : {
          "estimated_diameter_min" : 1048.4314204307,
          "estimated_diameter_max" : 2344.3639258298
        }
      },
      "is_potentially_hazardous_asteroid" : true,
      "close_approach_data" : [ {
        "close_approach_date" : "2014-12-15",
        "epoch_date_close_approach" : 1418630400000,
        "relative_velocity" : {
          "kilometers_per_second" : "13.4659080184",
          "kilometers_per_hour" : "48477.268866159",
          "miles_per_hour" : "30121.8896463086"
        },
        "miss_distance" : {
          "astronomical" : "0.2236634994",
          "lunar" : "87.0050964355",
          "kilometers" : "33459582",
          "miles" : "20790820"
        },
        "orbiting_body" : "Earth"
      } ],
      "orbital_data" : {
        "orbit_id" : "43",
        "orbit_determination_date" : "2017-04-06 09:21:18",
        "orbit_uncertainty" : "1",
        "minimum_orbit_intersection" : ".0293369",
        "jupiter_tisserand_invariant" : "7.899",
        "epoch_osculation" : "2458000.5",
        "eccentricity" : ".5504111596945918",
        "semi_major_axis" : ".7110704697306685",
        "inclination" : "19.58638660283496",
        "ascending_node_longitude" : "288.6359094720789",
        "orbital_period" : "219.011737927579",
        "perihelion_distance" : ".3196893478616331",
        "perihelion_argument" : "327.8849522171466",
        "aphelion_distance" : "1.102451591599704",
        "perihelion_time" : "2457989.861348267648",
        "mean_anomaly" : "17.4872573492526",
        "mean_motion" : "1.643747515117395",
        "equinox" : "J2000"
      }
    } ]
  }
}